24967,IRIDIUM 36,1997,100.21,-1.0,-,86.4,Inactive,0,LEO,USA,USA,Unknown,Unknown,Unknown,1 24967U 97056C   24212.50881888  .00000823  00000+0  27154-3 0  9996,2 24967  86.3984 308.1074 0002119  90.1876 269.9565 14.36918534406012,14.36918534,0.0002119,LEO
25042,IRIDIUM 39,1997,99.44,-1.0,-,86.39,Inactive,0,LEO,USA,USA,Unknown,Unknown,Unknown,1 25042U 97069D   24212.40522324  .00001352  00000+0  35753-3 0  9993,2 25042  86.3948 349.0517 0016393 304.2388  55.7262 14.48106664402375,14.48106664,0.0016393,LEO
25043,IRIDIUM 38,1997,100.18,-1.0,-,86.4,Inactive,0,LEO,USA,USA,Unknown,Unknown,Unknown,1 25043U 97069E   24212.43321871  .00000932  00000+0  30563-3 0  9998,2 25043  86.3977   8.4864 0003902  84.2015 275.9627 14.37364939399727,14.37364939,0.0003902,LEO
25077,IRIDIUM 42,1997,100.3,-1.0,-,86.4,Inactive,0,LEO,PRC,USA,Unknown,Unknown,Unknown,1 25077U 97077A   24212.39800618  .00000869  00000+0  29463-3 0  9996,2 25077  86.3975  14.2718 0002766  91.5045 268.6468 14.35655003395019,14.35655003,0.0002766,LEO
25078,IRIDIUM 44,1997,100.03,-1.0,-,86.4,Inactive,0,LEO,PRC,USA,Unknown,Unknown,Unknown,1 25078U 97077B   24212.38220328  .00000884  00000+0  27737-3 0  9999,2 25078  86.3982 357.0743 0002894  52.5741 307.5720 14.39503892397395,14.39503892,0.0002894,LEO
25104,IRIDIUM 45,1997,95.7,-1.0,-,86.38,Inactive,0,LEO,USA,USA,Unknown,Unknown,Unknown,1 25104U 97082A   24212.53227431  .00022060  00000+0  11794-2 0  9999,2 25104  86.3763 201.8852 0158337  81.8852 280.0311 15.04698341403375,15.04698341,0.0158337,LEO
25105,IRIDIUM 24,1997,99.91,-1.0,-,86.39,Inactive,0,LEO,USA,USA,Unknown,Unknown,Unknown,1 25105U 97082B   24212.41699892  .00000982  00000+0  29743-3 0  9994,2 25105  86.3907 216.5724 0013597  65.8979 294.3642 14.41291611396855,14.41291611,0.0013597,LEO
25262,IRIDIUM 51,1998,95.15,-1.0,-,86.4,Inactive,0,LEO,PRC,USA,Unknown,Unknown,Unknown,1 25262U 98018A   24212.45479000  .00027033  00000+0  11835-2 0  9997,2 25262  86.3952 211.6003 0140541  24.6065 336.1793 15.13325799397953,15.13325799,0.0140541,LEO
